[{"OBJECT_NAME":"HST","OBJECT_ID":"1990-037B","EPOCH":"2026-03-09T03:50:04.164288","MEAN_MOTION":15.29473555,"ECCENTRICITY":0.00018372,"INCLINATION":28.4717,"RA_OF_ASC_NODE":43.6133,"ARG_OF_PERICENTER":120.9992,"MEAN_ANOMALY":239.0785,"EPHEMERIS_TYPE":0,"CLASSIFICATION_TYPE":"U","NORAD_CAT_ID":20580,"ELEMENT_SET_NO":999,"REV_AT_EPOCH":77323,"BSTAR":0.0003002261,"MEAN_MOTION_DOT":9.063e-5,"MEAN_MOTION_DDOT":0},{"OBJECT_NAME":"STARLINK-34429","OBJECT_ID":"2025-130AC","EPOCH":"2026-03-09T07:05:03.187392","MEAN_MOTION":15.30206785,"ECCENTRICITY":0.00017157,"INCLINATION":53.1593,"RA_OF_ASC_NODE":90.2926,"ARG_OF_PERICENTER":34.6476,"MEAN_ANOMALY":325.4637,"EPHEMERIS_TYPE":0,"CLASSIFICATION_TYPE":"U","NORAD_CAT_ID":64464,"ELEMENT_SET_NO":999,"REV_AT_EPOCH":4064,"BSTAR":0.0008131646,"MEAN_MOTION_DOT":0.00023807,"MEAN_MOTION_DDOT":0}]
